IRIDIUM 39              
1 25042U 97069D   25244.90713808  .00001349  00000+0  34759-3 0  9994
2 25042  86.3983 178.2652 0019780  54.5175 305.7872 14.49305558460078
IRIDIUM 38              
1 25043U 97069E   25245.12245084  .00000958  00000+0  30953-3 0  9993
2 25043  86.3998 200.7988 0002146 138.3141 221.8221 14.38176271457012
IRIDIUM 42              
1 25077U 97077A   25244.94455876  .00000915  00000+0  30585-3 0  9994
2 25077  86.3989 207.1321 0001738 104.2754 255.8636 14.36406919452216
IRIDIUM 44              
1 25078U 97077B   25245.10869113  .00000975  00000+0  30163-3 0  9995
2 25078  86.4020 188.8046 0003760 108.2953 251.8655 14.40300953454771
IRIDIUM 45              
1 25104U 97082A   25245.23147199  .00040871  00000+0  13551-2 0  9998
2 25104  86.3605  10.4034 0111696  43.2799 317.7153 15.25182837463778
IRIDIUM 24              
1 25105U 97082B   25245.19074941  .00001263  00000+0  37776-3 0  9996
2 25105  86.3881  47.6118 0011451 173.1811 186.9547 14.42166544454314
IRIDIUM 51              
1 25262U 98018A   25245.12366390  .00083674  00000+0  15818-2 0  9993
2 25262  86.3837  17.5841 0076148 313.5965  45.8987 15.44914394458886
IRIDIUM 57              
1 25273U 98019B   25245.03579426  .00000590  00000+0  19656-3 0  9993
2 25273  86.3939 113.0682 0002081  89.5437 270.5998 14.35938570435813
